[{"OBJECT_NAME":"CSTP 1.2 (STC 1.2)","OBJECT_ID":"2023-091W","EPOCH":"2026-03-09T23:12:27.821952","MEAN_MOTION":15.2718076,"ECCENTRICITY":0.00204388,"INCLINATION":97.5258,"RA_OF_ASC_NODE":134.3262,"ARG_OF_PERICENTER":84.9592,"MEAN_ANOMALY":275.3979,"EPHEMERIS_TYPE":0,"CLASSIFICATION_TYPE":"U","NORAD_CAT_ID":57186,"ELEMENT_SET_NO":999,"REV_AT_EPOCH":14930,"BSTAR":0.00043035718,"MEAN_MOTION_DOT":0.00011466,"MEAN_MOTION_DDOT":0},{"OBJECT_NAME":"STARLINK-33758","OBJECT_ID":"2025-101L","EPOCH":"2026-03-08T20:04:55.124832","MEAN_MOTION":15.27581192,"ECCENTRICITY":5.078e-5,"INCLINATION":43.0012,"RA_OF_ASC_NODE":2.8821,"ARG_OF_PERICENTER":258.3313,"MEAN_ANOMALY":101.7481,"EPHEMERIS_TYPE":0,"CLASSIFICATION_TYPE":"U","NORAD_CAT_ID":64004,"ELEMENT_SET_NO":999,"REV_AT_EPOCH":4692,"BSTAR":0.0015990439,"MEAN_MOTION_DOT":0.00044004,"MEAN_MOTION_DDOT":0}]
